NORAD_CAT_ID,OBJECT_NAME,OBJECT_TYPE,EPOCH,MEAN_MOTION,ECCENTRICITY,INCLINATION,RA_OF_ASC_NODE,ARG_OF_PERICENTER,MEAN_ANOMALY,BSTAR,MEAN_MOTION_DOT,MEAN_MOTION_DDOT,TLE_LINE0,TLE_LINE1,TLE_LINE2,SEMIMAJOR_AXIS,PERIOD,APOGEE,PERIGEE,DECAYED
53964.0,STARLINK-4633,PAYLOAD,2023-10-16 00:29:31,15.08842885,0.0001373,53.2168,195.3081,91.3752,268.7398,0.00027473,4.087e-05,0.0,0 STARLINK-4633,1 53964U 22125A   23289.02050863  .00004087  00000-0  27473-3 0  9992,2 53964  53.2168 195.3081 0001373  91.3752 268.7398 15.08842885 57129,6917.872,95.437,540.686,538.787,0.0
53964.0,STARLINK-4633,PAYLOAD,2023-10-17 03:31:25,15.07763517,0.0061857,53.0351,190.3572,70.2506,290.514,0.00024455,3.638e-05,0.0,0 STARLINK-4633,1 53964U 22125A   23290.14681870  .00003638  00000-0  24455-3 0  9993,2 53964  53.0351 190.3572 0061857  70.2506 290.5140 15.07763517 57364,6921.173,95.506,585.85,500.225,0.0
53964.0,STARLINK-4633,PAYLOAD,2023-10-17 22:00:00,15.08874915,0.0001337,53.2163,186.7977,88.4832,136.9206,-0.0041659,-0.00066043,0.0,0 STARLINK-4633,1 53964U 22125A   23290.91667824 -.00066043  00000-0 -41659-2 0  9996,2 53964  53.2163 186.7977 0001337  88.4832 136.9206 15.08874915 57479,6917.774,95.435,540.564,538.714,0.0
53964.0,STARLINK-4633,PAYLOAD,2023-10-18 00:11:05,15.0883079,0.0001234,53.2153,186.3894,100.617,259.4961,0.00037154,5.629e-05,0.0,0 STARLINK-4633,1 53964U 22125A   23291.00770190  .00005629  00000-0  37154-3 0  9995,2 53964  53.2153 186.3894 0001234 100.6170 259.4961 15.08830790 57427,6917.909,95.438,540.627,538.92,0.0
53964.0,STARLINK-4633,PAYLOAD,2023-10-18 09:43:24,15.08834269,0.000132,53.2157,184.6048,89.9417,270.1727,0.00015952,2.251e-05,0.0,0 STARLINK-4633,1 53964U 22125A   23291.40514542  .00002251  00000-0  15952-3 0  9996,2 53964  53.2157 184.6048 0001320  89.9417 270.1727 15.08834269 57551,6917.898,95.438,540.676,538.85,0.0
53964.0,STARLINK-4633,PAYLOAD,2023-10-18 17:40:20,15.08834529,0.0001343,53.2155,183.1183,91.185,268.9296,0.00013108,1.799e-05,0.0,0 STARLINK-4633,1 53964U 22125A   23291.73634688  .00001799  00000-0  13108-3 0  9993,2 53964  53.2155 183.1183 0001343  91.1850 268.9296 15.08834529 57537,6917.897,95.438,540.691,538.833,0.0
53964.0,STARLINK-4633,PAYLOAD,2023-10-19 00:01:52,15.08844313,0.00014,53.2161,181.9307,92.1185,267.9967,0.00027095,4.027e-05,0.0,0 STARLINK-4633,1 53964U 22125A   23292.00130259  .00004027  00000-0  27095-3 0  9996,2 53964  53.2161 181.9307 0001400  92.1185 267.9967 15.08844313 57642,6917.867,95.437,540.701,538.764,0.0
53964.0,STARLINK-4633,PAYLOAD,2023-10-19 22:17:16,15.08849057,0.000137,53.2161,177.768,94.6396,265.4752,0.00016116,2.278e-05,0.0,0 STARLINK-4633,1 53964U 22125A   23292.92865883  .00002278  00000-0  16116-3 0  9993,2 53964  53.2161 177.7680 0001370  94.6396 265.4752 15.08849057 57719,6917.853,95.437,540.665,538.77,0.0
53964.0,STARLINK-4633,PAYLOAD,2023-10-20 01:28:02,15.0885225,0.0001288,53.2161,177.1728,101.1341,258.9796,0.00025258,3.736e-05,0.0,0 STARLINK-4633,1 53964U 22125A   23293.06113647  .00003736  00000-0  25258-3 0  9990,2 53964  53.2161 177.1728 0001288 101.1341 258.9796 15.08852250 57802,6917.843,95.437,540.599,538.817,0.0
53964.0,STARLINK-4633,PAYLOAD,2023-10-20 20:32:41,15.08821697,0.0001216,53.2154,173.6049,76.4176,283.6951,-0.00024421,-4.17e-05,0.0,0 STARLINK-4633,1 53964U 22125A   23293.85603264 -.00004170  00000-0 -24421-3 0  9992,2 53964  53.2154 173.6049 0001216  76.4176 283.6951 15.08821697 57924,6917.936,95.439,540.643,538.96,0.0
53964.0,STARLINK-4633,PAYLOAD,2023-10-20 22:08:04,15.08828364,0.0001375,53.2151,173.3039,90.4882,269.6268,-0.0001658,-2.925e-05,0.0,0 STARLINK-4633,1 53964U 22125A   23293.92226992 -.00002925  00000-0 -16580-3 0  9992,2 53964  53.2151 173.3039 0001375  90.4882 269.6268 15.08828364 57869,6917.916,95.438,540.732,538.83,0.0
53964.0,STARLINK-4633,PAYLOAD,2023-10-21 01:18:50,15.08831079,0.0001301,53.2156,172.7091,89.7303,270.3838,-8.0976e-05,-1.576e-05,0.0,0 STARLINK-4633,1 53964U 22125A   23294.05475056 -.00001576  00000-0 -80976-4 0  9996,2 53964  53.2156 172.7091 0001301  89.7303 270.3838 15.08831079 57952,6917.908,95.438,540.673,538.873,0.0
53964.0,STARLINK-4633,PAYLOAD,2023-10-21 09:15:46,15.08840076,0.0001413,53.2158,171.2246,93.2688,266.8466,0.00011094,1.478e-05,0.0,0 STARLINK-4633,1 53964U 22125A   23294.38594975  .00001478  00000-0  11094-3 0  9997,2 53964  53.2158 171.2246 0001413  93.2688 266.8466 15.08840076 57932,6917.88,95.438,540.723,538.768,0.0
53964.0,STARLINK-4633,PAYLOAD,2023-10-21 21:58:50,15.08852436,0.0001717,53.2164,168.8428,90.3348,269.7841,0.00036825,5.579e-05,0.0,0 STARLINK-4633,1 53964U 22125A   23294.91586339  .00005579  00000-0  36825-3 0  9996,2 53964  53.2164 168.8428 0001717  90.3348 269.7841 15.08852436 58013,6917.842,95.437,540.895,538.52,0.0
53964.0,STARLINK-4633,PAYLOAD,2023-10-22 09:06:33,15.08840988,0.0001794,53.2163,166.7616,81.9009,278.2187,0.00018951,2.729e-05,0.0,0 STARLINK-4633,1 53964U 22125A   23295.37954907  .00002729  00000-0  18951-3 0  9991,2 53964  53.2163 166.7616 0001794  81.9009 278.2187 15.08840988 58155,6917.877,95.437,540.983,538.501,0.0
53964.0,STARLINK-4633,PAYLOAD,2023-10-22 21:49:39,15.08827589,0.0001757,53.2173,164.3814,99.8118,260.3072,2.3031e-05,7.8e-07,0.0,0 STARLINK-4633,1 53964U 22125A   23295.90947997  .00000078  00000-0  23031-4 0  9992,2 53964  53.2173 164.3814 0001757  99.8118 260.3072 15.08827589 58166,6917.918,95.438,540.999,538.568,0.0
53964.0,STARLINK-4633,PAYLOAD,2023-10-23 18:29:39,15.0884561,0.0001843,53.2177,160.5167,89.0392,271.0811,0.00019899,2.881e-05,0.0,0 STARLINK-4633,1 53964U 22125A   23296.77059471  .00002881  00000-0  19899-3 0  9999,2 53964  53.2177 160.5167 0001843  89.0392 271.0811 15.08845610 58367,6917.863,95.437,541.003,538.453,0.0
53964.0,STARLINK-4633,PAYLOAD,2023-10-23 21:40:25,15.08852091,0.0001656,53.2164,159.922,91.8216,268.2966,0.00011243,1.502e-05,0.0,0 STARLINK-4633,1 53964U 22125A   23296.90307003  .00001502  00000-0  11243-3 0  9995,2 53964  53.2164 159.9220 0001656  91.8216 268.2966 15.08852091 58318,6917.843,95.437,540.854,538.563,0.0
53964.0,STARLINK-4633,PAYLOAD,2023-10-24 00:51:11,15.08849374,0.0001712,53.2165,159.3274,101.7385,258.3799,0.0003294,4.96e-05,0.0,0 STARLINK-4633,1 53964U 22125A   23297.03555299  .00004960  00000-0  32940-3 0  9990,2 53964  53.2165 159.3274 0001712 101.7385 258.3799 15.08849374 58339,6917.852,95.437,540.901,538.532,0.0
53964.0,STARLINK-4633,PAYLOAD,2023-10-25 00:41:58,15.0885087,0.000179,53.2166,154.8665,85.7572,274.3624,0.00037124,5.627e-05,0.0,0 STARLINK-4633,1 53964U 22125A   23298.02915191  .00005627  00000-0  37124-3 0  9991,2 53964  53.2166 154.8665 0001790  85.7572 274.3624 15.08850870 58551,6917.847,95.437,540.95,538.474,0.0
53964.0,STARLINK-4633,PAYLOAD,2023-10-26 18:01:59,15.08845101,0.0001637,53.2161,147.1374,97.2634,262.8544,-2.1812e-05,-6.35e-06,0.0,0 STARLINK-4633,1 53964U 22125A   23299.75138871 -.00000635  00000-0 -21812-4 0  9998,2 53964  53.2161 147.1374 0001637  97.2634 262.8544 15.08845101 58818,6917.865,95.437,540.862,538.597,0.0
53964.0,STARLINK-4633,PAYLOAD,2023-10-26 21:12:46,15.0883885,0.0001702,53.2162,146.5429,101.7334,258.3849,0.00023319,3.425e-05,0.0,0 STARLINK-4633,1 53964U 22125A   23299.88387169  .00003425  00000-0  23319-3 0  9999,2 53964  53.2162 146.5429 0001702 101.7334 258.3849 15.08838850 58769,6917.884,95.438,540.926,538.571,0.0
53964.0,STARLINK-4633,PAYLOAD,2023-10-27 06:45:04,15.08846685,0.0001584,53.2161,144.7582,94.3655,265.7518,5.6086e-05,6.05e-06,0.0,0 STARLINK-4633,1 53964U 22125A   23300.28130743  .00000605  00000-0  56086-4 0  9995,2 53964  53.2161 144.7582 0001584  94.3655 265.7518 15.08846685 58826,6917.86,95.437,540.821,538.629,0.0
53964.0,STARLINK-4633,PAYLOAD,2023-10-27 21:03:33,15.08839549,0.0001611,53.2164,142.0821,88.6195,271.4982,6.0027e-05,6.67e-06,0.0,0 STARLINK-4633,1 53964U 22125A   23300.87747196  .00000667  00000-0  60027-4 0  9994,2 53964  53.2164 142.0821 0001611  88.6195 271.4982 15.08839549 58912,6917.882,95.438,540.861,538.632,0.0
53964.0,STARLINK-4633,PAYLOAD,2023-10-27 22:38:56,15.08839773,0.0001622,53.2165,141.7848,89.1299,270.9879,5.8593e-05,6.45e-06,0.0,0 STARLINK-4633,1 53964U 22125A   23300.94371175  .00000645  00000-0  58593-4 0  9993,2 53964  53.2165 141.7848 0001622  89.1299 270.9879 15.08839773 58997,6917.881,95.438,540.868,538.624,0.0
53964.0,STARLINK-4633,PAYLOAD,2023-10-28 20:54:20,15.08841488,0.0001464,53.2152,137.6207,89.6366,270.4794,8.6862e-05,1.095e-05,0.0,0 STARLINK-4633,1 53964U 22125A   23301.87107266  .00001095  00000-0  86862-4 0  9994,2 53964  53.2152 137.6207 0001464  89.6366 270.4794 15.08841488 59066,6917.876,95.437,540.754,538.728,0.0
53964.0,STARLINK-4633,PAYLOAD,2023-10-29 12:48:12,15.0884107,0.0001403,53.2151,134.6466,85.7904,274.3249,0.00014899,2.084e-05,0.0,0 STARLINK-4633,1 53964U 22125A   23302.53347419  .00002084  00000-0  14899-3 0  9993,2 53964  53.2151 134.6466 0001403  85.7904 274.3249 15.08841070 59231,6917.877,95.437,540.713,538.772,0.0
53964.0,STARLINK-4633,PAYLOAD,2023-10-29 22:20:30,15.08849753,0.0001419,53.2149,132.8624,86.3389,273.7765,0.00020003,2.898e-05,0.0,0 STARLINK-4633,1 53964U 22125A   23302.93091002  .00002898  00000-0  20003-3 0  9998,2 53964  53.2149 132.8624 0001419  86.3389 273.7765 15.08849753 59226,6917.851,95.437,540.697,538.734,0.0
53964.0,STARLINK-4633,PAYLOAD,2023-10-30 19:00:31,15.0883951,0.0001503,53.215,128.9967,86.2649,273.8515,2.7985e-05,1.57e-06,0.0,0 STARLINK-4633,1 53964U 22125A   23303.79203568  .00000157  00000-0  27985-4 0  9998,2 53964  53.2150 128.9967 0001503  86.2649 273.8515 15.08839510 59422,6917.882,95.438,540.787,538.707,0.0
53964.0,STARLINK-4633,PAYLOAD,2023-10-31 22:02:04,15.08846027,0.0001411,53.2165,123.9415,91.2803,268.8351,6.5804e-05,7.6e-06,0.0,0 STARLINK-4633,1 53964U 22125A   23304.91811142  .00000760  00000-0  65804-4 0  9998,2 53964  53.2165 123.9415 0001411  91.2803 268.8351 15.08846027 59521,6917.862,95.437,540.703,538.751,0.0
